start=new Date('2022-03-05T00:00:00.000Z').valueOf();
sats=[{"NORAD_CAT_ID":"48296","TLE_LINE2":"2 48296  53.0541 183.0823 0001424  76.3995 283.7152 15.06401873 47345","RA_OF_ASC_NODE":"183.0823","EPHEMERIS_TYPE":"0","DECAY_DATE":null,"OBJECT_ID":"2021-036W","MEAN_ANOMALY":"283.7152","OBJECT_NAME":"STARLINK-2546","CENTER_NAME":"EARTH","ECCENTRICITY":"0.00014240","PERIOD":"95.592","SITE":"AFETR","CLASSIFICATION_TYPE":"U","PERIAPSIS":"546.222","EPOCH":"2022-03-04T14:46:33.745440","LAUNCH_DATE":"2021-04-29","MEAN_MOTION_DOT":"0.00000234","ELEMENT_SET_NO":"999","GP_ID":"197905150","MEAN_MOTION":"15.06401873","OBJECT_TYPE":"PAYLOAD","TIME_SYSTEM":"UTC","TLE_LINE1":"1 48296U 21036W   22063.61566835  .00000234  00000-0  34604-4 0  9994","RCS_SIZE":"LARGE","REV_AT_EPOCH":"4734","FILE":"3344863","BSTAR":"0.00003460400000","REF_FRAME":"TEME","APOAPSIS":"548.194","MEAN_ELEMENT_THEORY":"SGP4","ARG_OF_PERICENTER":"76.3995","INCLINATION":"53.0541","COUNTRY_CODE":"US","MEAN_MOTION_DDOT":"0.0000000000000","SEMIMAJOR_AXIS":"6925.343"},{"PERIAPSIS":"545.928","CLASSIFICATION_TYPE":"U","SITE":"AFETR","LAUNCH_DATE":"2021-04-29","EPOCH":"2022-03-04T16:16:48.187200","ECCENTRICITY":"0.00018760","CENTER_NAME":"EARTH","MEAN_ANOMALY":"312.0733","OBJECT_ID":"2021-036X","OBJECT_NAME":"STARLINK-2544","PERIOD":"95.592","EPHEMERIS_TYPE":"0","DECAY_DATE":null,"NORAD_CAT_ID":"48297","RA_OF_ASC_NODE":"182.7983","TLE_LINE2":"2 48297  53.0538 182.7983 0001876  48.0416 312.0733 15.06395627 47351","ARG_OF_PERICENTER":"48.0416","SEMIMAJOR_AXIS":"6925.362","MEAN_MOTION_DDOT":"0.0000000000000","INCLINATION":"53.0538","COUNTRY_CODE":"US","REV_AT_EPOCH":"4735","APOAPSIS":"548.526","REF_FRAME":"TEME","MEAN_ELEMENT_THEORY":"SGP4","BSTAR":"-0.00002637900000","FILE":"3344863","TLE_LINE1":"1 48297U 21036X   22063.67833550 -.00000675  00000-0 -26379-4 0  9993","TIME_SYSTEM":"UTC","OBJECT_TYPE":"PAYLOAD","MEAN_MOTION":"15.06395627","RCS_SIZE":"LARGE","ELEMENT_SET_NO":"999","MEAN_MOTION_DOT":"-0.00000675","GP_ID":"197903906"},{"GP_ID":"197904156","MEAN_MOTION_DOT":"-0.00000458","ELEMENT_SET_NO":"999","RCS_SIZE":"LARGE","OBJECT_TYPE":"PAYLOAD","MEAN_MOTION":"15.06398651","TIME_SYSTEM":"UTC","TLE_LINE1":"1 48298U 21036Y   22063.74099595 -.00000458  00000-0 -11834-4 0  9994","FILE":"3344863","BSTAR":"-0.00001183400000","MEAN_ELEMENT_THEORY":"SGP4","APOAPSIS":"548.211","REF_FRAME":"TEME","REV_AT_EPOCH":"4736","INCLINATION":"53.0544","COUNTRY_CODE":"US","MEAN_MOTION_DDOT":"0.0000000000000","SEMIMAJOR_AXIS":"6925.353","ARG_OF_PERICENTER":"70.4234","TLE_LINE2":"2 48298  53.0544 182.5209 0001435  70.4234 289.6910 15.06398651 47363","RA_OF_ASC_NODE":"182.5209","NORAD_CAT_ID":"48298","DECAY_DATE":null,"EPHEMERIS_TYPE":"0","PERIOD":"95.592","OBJECT_ID":"2021-036Y","MEAN_ANOMALY":"289.6910","OBJECT_NAME":"STARLINK-2559","CENTER_NAME":"EARTH","ECCENTRICITY":"0.00014350","EPOCH":"2022-03-04T17:47:02.050080","LAUNCH_DATE":"2021-04-29","SITE":"AFETR","CLASSIFICATION_TYPE":"U","PERIAPSIS":"546.224"},{"PERIOD":"95.592","ECCENTRICITY":"0.00017340","OBJECT_NAME":"STARLINK-2557","MEAN_ANOMALY":"301.7091","CENTER_NAME":"EARTH","OBJECT_ID":"2021-036Z","EPOCH":"2022-03-04T14:30:38.715264","LAUNCH_DATE":"2021-04-29","CLASSIFICATION_TYPE":"U","SITE":"AFETR","PERIAPSIS":"546.005","TLE_LINE2":"2 48299  53.0526 183.1370 0001734  58.4067 301.7091 15.06402527 47344","RA_OF_ASC_NODE":"183.1370","NORAD_CAT_ID":"48299","DECAY_DATE":null,"EPHEMERIS_TYPE":"0","FILE":"3344357","APOAPSIS":"548.407","REF_FRAME":"TEME","MEAN_ELEMENT_THEORY":"SGP4","BSTAR":"0.00012505000000","REV_AT_EPOCH":"4734","MEAN_MOTION_DDOT":"0.0000000000000","COUNTRY_CODE":"US","INCLINATION":"53.0526","SEMIMAJOR_AXIS":"6925.341","ARG_OF_PERICENTER":"58.4067","GP_ID":"197843117","MEAN_MOTION_DOT":"0.00001582","ELEMENT_SET_NO":"999","RCS_SIZE":"LARGE","MEAN_MOTION":"15.06402527","OBJECT_TYPE":"PAYLOAD","TLE_LINE1":"1 48299U 21036Z   22063.60461476  .00001582  00000-0  12505-3 0  9993","TIME_SYSTEM":"UTC"},{"EPOCH":"2022-03-04T17:29:47.311584","LAUNCH_DATE":"2021-04-29","CLASSIFICATION_TYPE":"U","SITE":"AFETR","PERIAPSIS":"546.226","PERIOD":"95.593","ECCENTRICITY":"0.00014650","CENTER_NAME":"EARTH","MEAN_ANOMALY":"291.7102","OBJECT_NAME":"STARLINK-2538","OBJECT_ID":"2021-036AA","DECAY_DATE":null,"EPHEMERIS_TYPE":"0","TLE_LINE2":"2 48300  53.0543 192.5838 0001465  68.4043 291.7102 15.06391128 47227","RA_OF_ASC_NODE":"192.5838","NORAD_CAT_ID":"48300","MEAN_MOTION_DDOT":"0.0000000000000","COUNTRY_CODE":"US","INCLINATION":"53.0543","SEMIMAJOR_AXIS":"6925.376","ARG_OF_PERICENTER":"68.4043","FILE":"3344863","REF_FRAME":"TEME","APOAPSIS":"548.255","MEAN_ELEMENT_THEORY":"SGP4","BSTAR":"0.00002535500000","REV_AT_EPOCH":"4722","RCS_SIZE":"LARGE","MEAN_MOTION":"15.06391128","OBJECT_TYPE":"PAYLOAD","TIME_SYSTEM":"UTC","TLE_LINE1":"1 48300U 21036AA  22063.72901981  .00000096  00000-0  25355-4 0  9996","GP_ID":"197905650","MEAN_MOTION_DOT":"0.00000096","ELEMENT_SET_NO":"999"},{"SEMIMAJOR_AXIS":"6925.346","INCLINATION":"53.0552","COUNTRY_CODE":"US","MEAN_MOTION_DDOT":"0.0000000000000","ARG_OF_PERICENTER":"77.5281","BSTAR":"0.00005650000000","MEAN_ELEMENT_THEORY":"SGP4","APOAPSIS":"548.305","REF_FRAME":"TEME","FILE":"3344863","REV_AT_EPOCH":"4721","RCS_SIZE":"LARGE","TIME_SYSTEM":"UTC","TLE_LINE1":"1 48301U 21036AB  22063.72532929  .00000560  00000-0  56500-4 0  9991","OBJECT_TYPE":"PAYLOAD","MEAN_MOTION":"15.06400801","GP_ID":"197904406","ELEMENT_SET_NO":"999","MEAN_MOTION_DOT":"0.00000560","LAUNCH_DATE":"2021-04-29","EPOCH":"2022-03-04T17:24:28.450656","PERIAPSIS":"546.118","SITE":"AFETR","CLASSIFICATION_TYPE":"U","PERIOD":"95.592","OBJECT_ID":"2021-036AB","MEAN_ANOMALY":"282.5884","OBJECT_NAME":"STARLINK-2537","CENTER_NAME":"EARTH","ECCENTRICITY":"0.00015790","DECAY_DATE":null,"EPHEMERIS_TYPE":"0","RA_OF_ASC_NODE":"192.5884","TLE_LINE2":"2 48301  53.0552 192.5884 0001579  77.5281 282.5884 15.06400801 47213","NORAD_CAT_ID":"48301"},{"PERIAPSIS":"546.322","CLASSIFICATION_TYPE":"U","SITE":"AFETR","LAUNCH_DATE":"2021-04-29","EPOCH":"2022-03-04T18:54:42.831072","ECCENTRICITY":"0.00013130","MEAN_ANOMALY":"293.2597","OBJECT_ID":"2021-036AC","CENTER_NAME":"EARTH","OBJECT_NAME":"STARLINK-2556","PERIOD":"95.593","EPHEMERIS_TYPE":"0","DECAY_DATE":null,"NORAD_CAT_ID":"48302","RA_OF_ASC_NODE":"192.3177","TLE_LINE2":"2 48302  53.0561 192.3177 0001313  66.8530 293.2597 15.06394312 47221","ARG_OF_PERICENTER":"66.8530","SEMIMAJOR_AXIS":"6925.366","MEAN_MOTION_DDOT":"0.0000000000000","INCLINATION":"53.0561","COUNTRY_CODE":"US","REV_AT_EPOCH":"4722","APOAPSIS":"548.140","REF_FRAME":"TEME","MEAN_ELEMENT_THEORY":"SGP4","BSTAR":"0.00011806000000","FILE":"3344863","TLE_LINE1":"1 48302U 21036AC  22063.78799573  .00001477  00000-0  11806-3 0  9995","TIME_SYSTEM":"UTC","MEAN_MOTION":"15.06394312","OBJECT_TYPE":"PAYLOAD","RCS_SIZE":"LARGE","ELEMENT_SET_NO":"999","MEAN_MOTION_DOT":"0.00001477","GP_ID":"197904656"},{"CENTER_NAME":"EARTH","MEAN_ANOMALY":"291.3365","OBJECT_ID":"2021-036AD","OBJECT_NAME":"STARLINK-2530","ECCENTRICITY":"0.00015910","PERIOD":"95.592","PERIAPSIS":"546.127","SITE":"AFETR","CLASSIFICATION_TYPE":"U","LAUNCH_DATE":"2021-04-29","EPOCH":"2022-03-04T17:13:51.939264","NORAD_CAT_ID":"48303","RA_OF_ASC_NODE":"192.6206","TLE_LINE2":"2 48303  53.0562 192.6206 0001591  68.7794 291.3365 15.06394968 47218","EPHEMERIS_TYPE":"0","DECAY_DATE":null,"REV_AT_EPOCH":"4721","BSTAR":"0.00000102970000","REF_FRAME":"TEME","APOAPSIS":"548.331","MEAN_ELEMENT_THEORY":"SGP4","FILE":"3344863","ARG_OF_PERICENTER":"68.7794","SEMIMAJOR_AXIS":"6925.364","INCLINATION":"53.0562","COUNTRY_CODE":"US","MEAN_MOTION_DDOT":"0.0000000000000","ELEMENT_SET_NO":"999","MEAN_MOTION_DOT":"-0.00000266","GP_ID":"197904908","TLE_LINE1":"1 48303U 21036AD  22063.71796226 -.00000266  00000-0  10297-5 0  9992","TIME_SYSTEM":"UTC","OBJECT_TYPE":"PAYLOAD","MEAN_MOTION":"15.06394968","RCS_SIZE":"LARGE"},{"RCS_SIZE":"LARGE","MEAN_MOTION":"15.06399374","OBJECT_TYPE":"PAYLOAD","TIME_SYSTEM":"UTC","TLE_LINE1":"1 48304U 21036AE  22063.58157798  .00000991  00000-0  85431-4 0  9998","GP_ID":"197842868","MEAN_MOTION_DOT":"0.00000991","ELEMENT_SET_NO":"999","MEAN_MOTION_DDOT":"0.0000000000000","COUNTRY_CODE":"US","INCLINATION":"53.0555","SEMIMAJOR_AXIS":"6925.350","ARG_OF_PERICENTER":"72.0622","FILE":"3344357","APOAPSIS":"548.275","MEAN_ELEMENT_THEORY":"SGP4","REF_FRAME":"TEME","BSTAR":"0.00008543100000","REV_AT_EPOCH":"4719","DECAY_DATE":null,"EPHEMERIS_TYPE":"0","TLE_LINE2":"2 48304  53.0555 193.2389 0001530  72.0622 288.0534 15.06399374 47195","RA_OF_ASC_NODE":"193.2389","NORAD_CAT_ID":"48304","EPOCH":"2022-03-04T13:57:28.337472","LAUNCH_DATE":"2021-04-29","CLASSIFICATION_TYPE":"U","SITE":"AFETR","PERIAPSIS":"546.156","PERIOD":"95.592","ECCENTRICITY":"0.00015300","MEAN_ANOMALY":"288.0534","OBJECT_ID":"2021-036AE","CENTER_NAME":"EARTH","OBJECT_NAME":"STARLINK-2524"},{"OBJECT_NAME":"STARLINK-2519","MEAN_ANOMALY":"299.3168","OBJECT_ID":"2021-036AF","CENTER_NAME":"EARTH","ECCENTRICITY":"0.00014600","PERIOD":"95.592","PERIAPSIS":"546.209","SITE":"AFETR","CLASSIFICATION_TYPE":"U","LAUNCH_DATE":"2021-04-29","EPOCH":"2022-03-04T15:27:41.759712","NORAD_CAT_ID":"48305","RA_OF_ASC_NODE":"192.9465","TLE_LINE2":"2 48305  53.0547 192.9465 0001460  60.7967 299.3168 15.06397733 47203","EPHEMERIS_TYPE":"0","DECAY_DATE":null,"REV_AT_EPOCH":"4720","BSTAR":"0.00013604000000","MEAN_ELEMENT_THEORY":"SGP4","APOAPSIS":"548.232","REF_FRAME":"TEME","FILE":"3344863","ARG_OF_PERICENTER":"60.7967","SEMIMAJOR_AXIS":"6925.356","INCLINATION":"53.0547","COUNTRY_CODE":"US","MEAN_MOTION_DDOT":"0.0000000000000","ELEMENT_SET_NO":"999","MEAN_MOTION_DOT":"0.00001745","GP_ID":"197903907","TLE_LINE1":"1 48305U 21036AF  22063.64423333  .00001745  00000-0  13604-3 0  9997","TIME_SYSTEM":"UTC","MEAN_MOTION":"15.06397733","OBJECT_TYPE":"PAYLOAD","RCS_SIZE":"LARGE"}];
